H1 CPF  1  DGF 2022 08 03 11  7151 larets     NONE      
H2   304206 5557    27944 2022 08 03 00 00 00 2022 08 10 00 00 00    30 1 1  0 0 0
H5  0.0650
H9
10 0 59800  25200.000000  0       2245300.020      -5100559.673      -4360238.878
10 0 59800  25230.000000  0       2250183.178      -5243911.951      -4183724.956
10 0 59800  25260.000000  0       2252185.117      -5381999.620      -4002967.559
10 0 59800  25290.000000  0       2251326.510      -5514669.453      -3818148.802
10 0 59800  25320.000000  0       2247631.566      -5641773.680      -3629455.026
10 0 59800  25350.000000  0       2241127.985      -5763170.166      -3437076.613
10 0 59800  25380.000000  0       2231846.908      -5878722.576      -3241207.804
10 0 59800  25410.000000  0       2219822.868      -5988300.537      -3042046.509
10 0 59800  25440.000000  0       2205093.730      -6091779.801      -2839794.110
10 0 59800  25470.000000  0       2187700.628      -6189042.393      -2634655.258
10 0 59800  25500.000000  0       2167687.899      -6279976.753      -2426837.667
10 0 59800  25530.000000  0       2145103.013      -6364477.870      -2216551.906
10 0 59800  25560.000000  0       2119996.499      -6442447.412      -2004011.186
10 0 59800  25590.000000  0       2092421.866      -6513793.847      -1789431.153
10 0 59800  25620.000000  0       2062435.527      -6578432.564      -1573029.665
10 0 59800  25650.000000  0       2030096.719      -6636285.992      -1355026.575
10 0 59800  25680.000000  0       1995467.411      -6687283.697      -1135643.493
10 0 59800  25710.000000  0       1958612.215      -6731362.472       -915103.554
10 0 59800  25740.000000  0       1919598.286      -6768466.416       -693631.189
10 0 59800  25770.000000  0       1878495.222      -6798547.007       -471451.896
10 0 59800  25800.000000  0       1835374.965      -6821563.172       -248792.009
10 0 59800  25830.000000  0       1790311.693      -6837481.340        -25878.466
10 0 59800  25860.000000  0       1743381.717      -6846275.505        197061.426
10 0 59800  25890.000000  0       1694663.374      -6847927.267        419800.224
10 0 59800  25920.000000  0       1644236.915      -6842425.871        642110.596
10 0 59800  25950.000000  0       1592184.387      -6829768.236        863765.556
10 0 59800  25980.000000  0       1538589.515      -6809958.968       1084538.710
10 0 59800  26010.000000  0       1483537.586      -6783010.365       1304204.496
10 0 59800  26040.000000  0       1427115.328      -6748942.408       1522538.420
10 0 59800  26070.000000  0       1369410.785      -6707782.748       1739317.294
10 0 59800  26100.000000  0       1310513.200      -6659566.685       1954319.462
10 0 59800  26130.000000  0       1250512.883      -6604337.143       2167325.037
10 0 59800  26160.000000  0       1189501.093      -6542144.629       2378116.132
10 0 59800  26190.000000  0       1127569.902      -6473047.190       2586477.092
10 0 59800  26220.000000  0       1064812.070      -6397110.350       2792194.716
10 0 59800  26250.000000  0       1001320.917      -6314407.050       2995058.483
10 0 59800  26280.000000  0        937190.193      -6225017.572       3194860.770
10 0 59800  26310.000000  0        872513.948      -6129029.461       3391397.068
10 0 59800  26340.000000  0        807386.409      -6026537.429       3584466.198
10 0 59800  26370.000000  0        741901.846      -5917643.265       3773870.520
10 0 59800  26400.000000  0        676154.448      -5802455.722       3959416.133
10 0 59800  26430.000000  0        610238.192      -5681090.411       4140913.082
10 0 59800  26460.000000  0        544246.720      -5553669.675       4318175.556
10 0 59800  26490.000000  0        478273.211      -5420322.463       4491022.078
10 0 59800  26520.000000  0        412410.254      -5281184.190       4659275.697
10 0 59800  26550.000000  0        346749.725      -5136396.591       4822764.166
10 0 59800  26580.000000  0        281382.666      -4986107.570       4981320.123
10 0 59800  26610.000000  0        216399.165      -4830471.047       5134781.255
10 0 59800  26640.000000  0        151888.240      -4669646.789       5282990.473
10 0 59800  26670.000000  0         87937.719      -4503800.242       5425796.067
10 0 59800  26700.000000  0         24634.133      -4333102.355       5563051.866
10 0 59800  26730.000000  0        -37937.405      -4157729.390       5694617.385
10 0 59800  26760.000000  0        -99693.300      -3977862.739       5820357.970
10 0 59800  26790.000000  0       -160551.591      -3793688.722       5940144.925
10 0 59800  26820.000000  0       -220432.049      -3605398.392       6053855.648
10 0 59800  26850.000000  0       -279256.283      -3413187.330       6161373.747
10 0 59800  26880.000000  0       -336947.838      -3217255.438       6262589.159
10 0 59800  26910.000000  0       -393432.289      -3017806.727       6357398.252
10 0 59800  26940.000000  0       -448637.338      -2815049.100       6445703.933
10 0 59800  26970.000000  0       -502492.899      -2609194.141       6527415.745
10 0 59800  27000.000000  0       -554931.187      -2400456.882       6602449.959
10 0 59800  27030.000000  0       -605886.800      -2189055.581       6670729.652
10 0 59800  27060.000000  0       -655296.798      -1975211.491       6732184.793
10 0 59800  27090.000000  0       -703100.781      -1759148.626       6786752.308
10 0 59800  27120.000000  0       -749240.960      -1541093.521       6834376.150
10 0 59800  27150.000000  0       -793662.226      -1321274.996       6875007.351
10 0 59800  27180.000000  0       -836312.216      -1099923.907       6908604.078
10 0 59800  27210.000000  0       -877141.376       -877272.904       6935131.670
10 0 59800  27240.000000  0       -916103.018       -653556.182       6954562.673
10 0 59800  27270.000000  0       -953153.374       -429009.235       6966876.871
10 0 59800  27300.000000  0       -988251.645       -203868.607       6972061.303
10 0 59800  27330.000000  0      -1021360.047         21628.363       6970110.281
10 0 59800  27360.000000  0      -1052443.849        247243.787       6961025.398
10 0 59800  27390.000000  0      -1081471.415        472739.491       6944815.525
10 0 59800  27420.000000  0      -1108414.233        697877.259       6921496.804
10 0 59800  27450.000000  0      -1133246.944        922419.092       6891092.632
10 0 59800  27480.000000  0      -1155947.366       1146127.460       6853633.645
10 0 59800  27510.000000  0      -1176496.516       1368765.554       6809157.685
10 0 59800  27540.000000  0      -1194878.625       1590097.542       6757709.770
10 0 59800  27570.000000  0      -1211081.150       1809888.823       6699342.044
10 0 59800  27600.000000  0      -1225094.782       2027906.275       6634113.734
10 0 59800  27630.000000  0      -1236913.445       2243918.509       6562091.089
10 0 59800  27660.000000  0      -1246534.303       2457696.112       6483347.320
10 0 59800  27690.000000  0      -1253957.747       2669011.905       6397962.527
10 0 59800  27720.000000  0      -1259187.392       2877641.180       6306023.628
10 0 59800  27750.000000  0      -1262230.061       3083361.955       6207624.262
10 0 59800  27780.000000  0      -1263095.765       3285955.205       6102864.709
10 0 59800  27810.000000  0      -1261797.683       3485205.107       5991851.778
10 0 59800  27840.000000  0      -1258352.128       3680899.270       5874698.717
10 0 59800  27870.000000  0      -1252778.520       3872828.970       5751525.093
10 0 59800  27900.000000  0      -1245099.353       4060789.384       5622456.681
10 0 59800  27930.000000  0      -1235340.152       4244579.812       5487625.332
10 0 59800  27960.000000  0      -1223529.432       4424003.905       5347168.849
10 0 59800  27990.000000  0      -1209698.652       4598869.879       5201230.841
10 0 59800  28020.000000  0      -1193882.165       4768990.733       5049960.582
10 0 59800  28050.000000  0      -1176117.158       4934184.457       4893512.856
10 0 59800  28080.000000  0      -1156443.597       5094274.237       4732047.802
10 0 59800  28110.000000  0      -1134904.156       5249088.653       4565730.742
10 0 59800  28140.000000  0      -1111544.154       5398461.863       4394732.014
10 0 59800  28170.000000  0      -1086411.481       5542233.793       4219226.800
10 0 59800  28200.000000  0      -1059556.528       5680250.308       4039394.947
10 0 59800  28230.000000  0      -1031032.110       5812363.394       3855420.792
10 0 59800  28260.000000  0      -1000893.389       5938431.329       3667492.967
10 0 59800  28290.000000  0       -969197.792       6058318.848       3475804.204
10 0 59800  28320.000000  0       -936004.925       6171897.303       3280551.135
10 0 59800  28350.000000  0       -901376.478       6279044.812       3081934.076
10 0 59800  28380.000000  0       -865376.135       6379646.392       2880156.814
10 0 59800  28410.000000  0       -828069.468       6473594.091       2675426.388
10 0 59800  28440.000000  0       -789523.844       6560787.103       2467952.877
10 0 59800  28470.000000  0       -749808.320       6641131.885       2257949.173
10 0 59800  28500.000000  0       -708993.540       6714542.262       2045630.763
10 0 59800  28530.000000  0       -667151.633       6780939.529       1831215.494
10 0 59800  28560.000000  0       -624356.098       6840252.533       1614923.345
10 0 59800  28590.000000  0       -580681.700       6892417.755       1396976.191
10 0 59800  28620.000000  0       -536204.352       6937379.379       1177597.568
10 0 59800  28650.000000  0       -491001.007       6975089.352        957012.436
10 0 59800  28680.000000  0       -445149.541       7005507.442        735446.945
10 0 59800  28710.000000  0       -398728.635       7028601.275        513128.187
10 0 59800  28740.000000  0       -351817.664       7044346.376        290283.958
10 0 59800  28770.000000  0       -304496.573       7052726.191         67142.516
99
